ONEWEB-0380             
1 49306U 21090AD  25310.13212798  .00000106  00000+0  23201-3 0  9995
2 49306  87.9233 349.3569 0001698  92.0252 268.1076 13.19726492197000
ONEWEB-0381             
1 49307U 21090AE  25310.05458235  .00000081  00000+0  16805-3 0  9999
2 49307  87.9185 318.9407 0001644  90.3413 269.7909 13.20772127200376
ONEWEB-0382             
1 49308U 21090AF  25310.26922819  .00000044  00000+0  75785-4 0  9999
2 49308  87.9195 318.8915 0001567  95.1397 264.9915 13.20771567200392
ONEWEB-0383             
1 49309U 21090AG  25310.31087376  .00000384  00000+0  10018-2 0  9999
2 49309  87.9012 334.0918 0002283 105.5686 254.5696 13.14502262198313
ONEWEB-0384             
1 49310U 21090AH  25310.03608694 -.00000023  00000+0 -88822-4 0  9994
2 49310  87.9189 318.9704 0001338 103.1499 256.9784 13.20796940200379
ONEWEB-0385             
1 49311U 21090AJ  25310.26132876 -.00000027  00000+0 -99463-4 0  9991
2 49311  87.9179 318.9013 0001689  93.4176 266.7150 13.20772481200374
ONEWEB-0386             
1 49312U 21090AK  25310.27869139  .00000103  00000+0  22078-3 0  9992
2 49312  87.9197 318.8788 0001679  95.9179 264.2146 13.20772611200397
ONEWEB-0387             
1 49313U 21090AL  25310.26291275  .00000033  00000+0  48528-4 0  9993
2 49313  87.9176 318.9304 0001603  83.2892 276.8423 13.20770871200392
ONEWEB-0388             
1 49314U 21090AM  25310.12738958  .00000084  00000+0  17626-3 0  9993
2 49314  87.9226 349.3620 0001722  98.5952 261.5376 13.19726144196996
ONEWEB-0389             
1 50469U 21132A   25310.25012468  .00000036  00000+0  59090-4 0  9997
2 50469  87.9134  50.2011 0001358  98.3524 261.7762 13.17650551188726
ONEWEB-0390             
1 50470U 21132B   25310.25181279  .00000051  00000+0  98225-4 0  9996
2 50470  87.9127  50.2054 0001832  92.7051 267.4290 13.17649672188728
ONEWEB-0391             
1 50471U 21132C   25310.25349130  .00000119  00000+0  27296-3 0  9993
2 50471  87.9125  50.2155 0001216  76.0293 284.0974 13.17651193188723
ONEWEB-0392             
1 50472U 21132D   25310.28385743  .00000098  00000+0  21818-3 0  9997
2 50472  87.9138  50.1588 0001332  95.9076 264.2208 13.17651787188768
ONEWEB-0393             
1 50473U 21132E   25310.25700553  .00000153  00000+0  36110-3 0  9998
2 50473  87.9137  50.1851 0001496  99.3325 260.7975 13.17648431188750
ONEWEB-0394             
1 50474U 21132F   25310.24855754  .00000115  00000+0  25936-3 0  9994
2 50474  87.9224  19.7163 0001640 101.1884 258.9432 13.18687451192217
ONEWEB-0395             
1 50475U 21132G   25310.30416914  .00000446  00000+0  12219-2 0  9999
2 50475  87.8851  65.4618 0001594  90.7723 269.3588 13.11420027186509
ONEWEB-0396             
1 50476U 21132H   25310.24196470  .00000049  00000+0  91528-4 0  9996
2 50476  87.9224  19.7301 0001690 100.3587 259.7736 13.18686866192258
