[{"OBJECT_NAME":"ONEWEB-0380","OBJECT_ID":"2021-090AD","EPOCH":"2025-11-06T03:10:15.857472","MEAN_MOTION":13.19726492,"ECCENTRICITY":0.00016988,"INCLINATION":87.9233,"RA_OF_ASC_NODE":349.3569,"ARG_OF_PERICENTER":92.0252,"MEAN_ANOMALY":268.1076,"EPHEMERIS_TYPE":0,"CLASSIFICATION_TYPE":"U","NORAD_CAT_ID":49306,"ELEMENT_SET_NO":999,"REV_AT_EPOCH":19700,"BSTAR":0.00023201488,"MEAN_MOTION_DOT":1.06e-6,"MEAN_MOTION_DDOT":0},{"OBJECT_NAME":"ONEWEB-0381","OBJECT_ID":"2021-090AE","EPOCH":"2025-11-06T01:18:35.915040","MEAN_MOTION":13.20772127,"ECCENTRICITY":0.0001644,"INCLINATION":87.9185,"RA_OF_ASC_NODE":318.9407,"ARG_OF_PERICENTER":90.3413,"MEAN_ANOMALY":269.7909,"EPHEMERIS_TYPE":0,"CLASSIFICATION_TYPE":"U","NORAD_CAT_ID":49307,"ELEMENT_SET_NO":999,"REV_AT_EPOCH":20037,"BSTAR":0.00016804758,"MEAN_MOTION_DOT":8.1e-7,"MEAN_MOTION_DDOT":0},{"OBJECT_NAME":"ONEWEB-0382","OBJECT_ID":"2021-090AF","EPOCH":"2025-11-06T06:27:41.315616","MEAN_MOTION":13.20771567,"ECCENTRICITY":0.00015673,"INCLINATION":87.9195,"RA_OF_ASC_NODE":318.8915,"ARG_OF_PERICENTER":95.1397,"MEAN_ANOMALY":264.9915,"EPHEMERIS_TYPE":0,"CLASSIFICATION_TYPE":"U","NORAD_CAT_ID":49308,"ELEMENT_SET_NO":999,"REV_AT_EPOCH":20039,"BSTAR":7.5785208e-5,"MEAN_MOTION_DOT":4.4e-7,"MEAN_MOTION_DDOT":0},{"OBJECT_NAME":"ONEWEB-0383","OBJECT_ID":"2021-090AG","EPOCH":"2025-11-06T07:27:39.492864","MEAN_MOTION":13.14502262,"ECCENTRICITY":0.00022832,"INCLINATION":87.9012,"RA_OF_ASC_NODE":334.0918,"ARG_OF_PERICENTER":105.5686,"MEAN_ANOMALY":254.5696,"EPHEMERIS_TYPE":0,"CLASSIFICATION_TYPE":"U","NORAD_CAT_ID":49309,"ELEMENT_SET_NO":999,"REV_AT_EPOCH":19831,"BSTAR":0.0010018122,"MEAN_MOTION_DOT":3.84e-6,"MEAN_MOTION_DDOT":0},{"OBJECT_NAME":"ONEWEB-0384","OBJECT_ID":"2021-090AH","EPOCH":"2025-11-06T00:51:57.911616","MEAN_MOTION":13.2079694,"ECCENTRICITY":0.00013387,"INCLINATION":87.9189,"RA_OF_ASC_NODE":318.9704,"ARG_OF_PERICENTER":103.1499,"MEAN_ANOMALY":256.9784,"EPHEMERIS_TYPE":0,"CLASSIFICATION_TYPE":"U","NORAD_CAT_ID":49310,"ELEMENT_SET_NO":999,"REV_AT_EPOCH":20037,"BSTAR":-8.8822246e-5,"MEAN_MOTION_DOT":-2.3e-7,"MEAN_MOTION_DDOT":0},{"OBJECT_NAME":"ONEWEB-0385","OBJECT_ID":"2021-090AJ","EPOCH":"2025-11-06T06:16:18.804864","MEAN_MOTION":13.20772481,"ECCENTRICITY":0.00016891,"INCLINATION":87.9179,"RA_OF_ASC_NODE":318.9013,"ARG_OF_PERICENTER":93.4176,"MEAN_ANOMALY":266.715,"EPHEMERIS_TYPE":0,"CLASSIFICATION_TYPE":"U","NORAD_CAT_ID":49311,"ELEMENT_SET_NO":999,"REV_AT_EPOCH":20037,"BSTAR":-9.9463302e-5,"MEAN_MOTION_DOT":-2.7e-7,"MEAN_MOTION_DDOT":0},{"OBJECT_NAME":"ONEWEB-0386","OBJECT_ID":"2021-090AK","EPOCH":"2025-11-06T06:41:18.936096","MEAN_MOTION":13.20772611,"ECCENTRICITY":0.0001679,"INCLINATION":87.9197,"RA_OF_ASC_NODE":318.8788,"ARG_OF_PERICENTER":95.9179,"MEAN_ANOMALY":264.2146,"EPHEMERIS_TYPE":0,"CLASSIFICATION_TYPE":"U","NORAD_CAT_ID":49312,"ELEMENT_SET_NO":999,"REV_AT_EPOCH":20039,"BSTAR":0.00022078429,"MEAN_MOTION_DOT":1.03e-6,"MEAN_MOTION_DDOT":0},{"OBJECT_NAME":"ONEWEB-0387","OBJECT_ID":"2021-090AL","EPOCH":"2025-11-06T06:18:35.661600","MEAN_MOTION":13.20770871,"ECCENTRICITY":0.00016034,"INCLINATION":87.9176,"RA_OF_ASC_NODE":318.9304,"ARG_OF_PERICENTER":83.2892,"MEAN_ANOMALY":276.8423,"EPHEMERIS_TYPE":0,"CLASSIFICATION_TYPE":"U","NORAD_CAT_ID":49313,"ELEMENT_SET_NO":999,"REV_AT_EPOCH":20039,"BSTAR":4.8528272e-5,"MEAN_MOTION_DOT":3.3e-7,"MEAN_MOTION_DDOT":0},{"OBJECT_NAME":"ONEWEB-0388","OBJECT_ID":"2021-090AM","EPOCH":"2025-11-06T03:03:26.459712","MEAN_MOTION":13.19726144,"ECCENTRICITY":0.00017223,"INCLINATION":87.9226,"RA_OF_ASC_NODE":349.362,"ARG_OF_PERICENTER":98.5952,"MEAN_ANOMALY":261.5376,"EPHEMERIS_TYPE":0,"CLASSIFICATION_TYPE":"U","NORAD_CAT_ID":49314,"ELEMENT_SET_NO":999,"REV_AT_EPOCH":19699,"BSTAR":0.00017626089,"MEAN_MOTION_DOT":8.4e-7,"MEAN_MOTION_DDOT":0},{"OBJECT_NAME":"ONEWEB-0389","OBJECT_ID":"2021-132A","EPOCH":"2025-11-06T06:00:10.772352","MEAN_MOTION":13.17650551,"ECCENTRICITY":0.0001358,"INCLINATION":87.9134,"RA_OF_ASC_NODE":50.2011,"ARG_OF_PERICENTER":98.3524,"MEAN_ANOMALY":261.7762,"EPHEMERIS_TYPE":0,"CLASSIFICATION_TYPE":"U","NORAD_CAT_ID":50469,"ELEMENT_SET_NO":999,"REV_AT_EPOCH":18872,"BSTAR":5.9090236e-5,"MEAN_MOTION_DOT":3.6e-7,"MEAN_MOTION_DDOT":0},{"OBJECT_NAME":"ONEWEB-0390","OBJECT_ID":"2021-132B","EPOCH":"2025-11-06T06:02:36.625056","MEAN_MOTION":13.17649672,"ECCENTRICITY":0.00018322,"INCLINATION":87.9127,"RA_OF_ASC_NODE":50.2054,"ARG_OF_PERICENTER":92.7051,"MEAN_ANOMALY":267.429,"EPHEMERIS_TYPE":0,"CLASSIFICATION_TYPE":"U","NORAD_CAT_ID":50470,"ELEMENT_SET_NO":999,"REV_AT_EPOCH":18872,"BSTAR":9.8225416e-5,"MEAN_MOTION_DOT":5.1e-7,"MEAN_MOTION_DDOT":0},{"OBJECT_NAME":"ONEWEB-0391","OBJECT_ID":"2021-132C","EPOCH":"2025-11-06T06:05:01.648320","MEAN_MOTION":13.17651193,"ECCENTRICITY":0.00012168,"INCLINATION":87.9125,"RA_OF_ASC_NODE":50.2155,"ARG_OF_PERICENTER":76.0293,"MEAN_ANOMALY":284.0974,"EPHEMERIS_TYPE":0,"CLASSIFICATION_TYPE":"U","NORAD_CAT_ID":50471,"ELEMENT_SET_NO":999,"REV_AT_EPOCH":18872,"BSTAR":0.00027296498,"MEAN_MOTION_DOT":1.19e-6,"MEAN_MOTION_DDOT":0},{"OBJECT_NAME":"ONEWEB-0392","OBJECT_ID":"2021-132D","EPOCH":"2025-11-06T06:48:45.281952","MEAN_MOTION":13.17651787,"ECCENTRICITY":0.00013325,"INCLINATION":87.9138,"RA_OF_ASC_NODE":50.1588,"ARG_OF_PERICENTER":95.9076,"MEAN_ANOMALY":264.2208,"EPHEMERIS_TYPE":0,"CLASSIFICATION_TYPE":"U","NORAD_CAT_ID":50472,"ELEMENT_SET_NO":999,"REV_AT_EPOCH":18876,"BSTAR":0.00021817997,"MEAN_MOTION_DOT":9.8e-7,"MEAN_MOTION_DDOT":0},{"OBJECT_NAME":"ONEWEB-0393","OBJECT_ID":"2021-132E","EPOCH":"2025-11-06T06:10:05.277792","MEAN_MOTION":13.17648431,"ECCENTRICITY":0.00014967,"INCLINATION":87.9137,"RA_OF_ASC_NODE":50.1851,"ARG_OF_PERICENTER":99.3325,"MEAN_ANOMALY":260.7975,"EPHEMERIS_TYPE":0,"CLASSIFICATION_TYPE":"U","NORAD_CAT_ID":50473,"ELEMENT_SET_NO":999,"REV_AT_EPOCH":18875,"BSTAR":0.00036109828,"MEAN_MOTION_DOT":1.53e-6,"MEAN_MOTION_DDOT":0},{"OBJECT_NAME":"ONEWEB-0394","OBJECT_ID":"2021-132F","EPOCH":"2025-11-06T05:57:55.371456","MEAN_MOTION":13.18687451,"ECCENTRICITY":0.000164,"INCLINATION":87.9224,"RA_OF_ASC_NODE":19.7163,"ARG_OF_PERICENTER":101.1884,"MEAN_ANOMALY":258.9432,"EPHEMERIS_TYPE":0,"CLASSIFICATION_TYPE":"U","NORAD_CAT_ID":50474,"ELEMENT_SET_NO":999,"REV_AT_EPOCH":19221,"BSTAR":0.00025936451,"MEAN_MOTION_DOT":1.15e-6,"MEAN_MOTION_DDOT":0},{"OBJECT_NAME":"ONEWEB-0395","OBJECT_ID":"2021-132G","EPOCH":"2025-11-06T07:18:00.213696","MEAN_MOTION":13.11420027,"ECCENTRICITY":0.00015944,"INCLINATION":87.8851,"RA_OF_ASC_NODE":65.4618,"ARG_OF_PERICENTER":90.7723,"MEAN_ANOMALY":269.3588,"EPHEMERIS_TYPE":0,"CLASSIFICATION_TYPE":"U","NORAD_CAT_ID":50475,"ELEMENT_SET_NO":999,"REV_AT_EPOCH":18650,"BSTAR":0.0012219422,"MEAN_MOTION_DOT":4.46e-6,"MEAN_MOTION_DDOT":0},{"OBJECT_NAME":"ONEWEB-0396","OBJECT_ID":"2021-132H","EPOCH":"2025-11-06T05:48:25.750080","MEAN_MOTION":13.18686866,"ECCENTRICITY":0.00016903,"INCLINATION":87.9224,"RA_OF_ASC_NODE":19.7301,"ARG_OF_PERICENTER":100.3587,"MEAN_ANOMALY":259.7736,"EPHEMERIS_TYPE":0,"CLASSIFICATION_TYPE":"U","NORAD_CAT_ID":50476,"ELEMENT_SET_NO":999,"REV_AT_EPOCH":19225,"BSTAR":9.1527685e-5,"MEAN_MOTION_DOT":4.9e-7,"MEAN_MOTION_DDOT":0}]
